[{"OBJECT_NAME":"STARLINK-3825","OBJECT_ID":"2022-049AD","EPOCH":"2026-03-09T23:06:50.787648","MEAN_MOTION":15.08840024,"ECCENTRICITY":0.00013472,"INCLINATION":53.2173,"RA_OF_ASC_NODE":57.8901,"ARG_OF_PERICENTER":86.1487,"MEAN_ANOMALY":273.966,"EPHEMERIS_TYPE":0,"CLASSIFICATION_TYPE":"U","NORAD_CAT_ID":52478,"ELEMENT_SET_NO":999,"REV_AT_EPOCH":21353,"BSTAR":3.8105066e-5,"MEAN_MOTION_DOT":3.19e-6,"MEAN_MOTION_DDOT":0},{"OBJECT_NAME":"DELTA 1 DEB","OBJECT_ID":"1977-065CB","EPOCH":"2026-03-09T00:48:12.317760","MEAN_MOTION":13.97995904,"ECCENTRICITY":0.05328634,"INCLINATION":29.0786,"RA_OF_ASC_NODE":354.7404,"ARG_OF_PERICENTER":16.4646,"MEAN_ANOMALY":345.2542,"EPHEMERIS_TYPE":0,"CLASSIFICATION_TYPE":"U","NORAD_CAT_ID":10250,"ELEMENT_SET_NO":999,"REV_AT_EPOCH":29411,"BSTAR":0.0013731025,"MEAN_MOTION_DOT":6.972e-5,"MEAN_MOTION_DDOT":0}]
